BEIDOU 3 (C01)          
1 36287U 10001A   21262.54301363 -.00000302  00000-0  00000-0 0  9992
2 36287   1.6450  40.1170 0003559  73.8814 220.6027  1.00270025 42798
BEIDOU 5 (C06)          
1 36828U 10036A   21262.61111471 -.00000171  00000-0  00000-0 0  9992
2 36828  54.1835 178.7249 0023191 181.9248 325.3276  1.00276390 40866
BEIDOU 6 (C04)          
1 37210U 10057A   21262.61778689 -.00000135  00000-0  00000-0 0  9991
2 37210   1.0015  55.9817 0006763 135.3817 189.7051  1.00269840 39910
BEIDOU 7 (C07)          
1 37256U 10068A   21261.94340065 -.00000176  00000-0  00000-0 0  9996
2 37256  50.7000 292.8897 0019895 185.1934 328.2688  1.00301850 39428
BEIDOU 8 (C08)          
1 37384U 11013A   21262.56425360 -.00000160  00000-0  00000-0 0  9993
2 37384  59.9105  56.9546 0018586 179.6831  71.3173  1.00280552 38303
BEIDOU 9 (C09)          
1 37763U 11038A   21262.16824892 -.00000124  00000-0  00000+0 0  9999
2 37763  54.4717 181.1888 0086544 226.9498 103.9241  1.00290473 37273
BEIDOU 10 (C10)         
1 37948U 11073A   21262.43058317 -.00000130  00000-0  00000-0 0  9992
2 37948  50.8021 292.5108 0078961 217.1606 100.1941  1.00272179 36037
BEIDOU 11 (C05)         
1 38091U 12008A   21262.59763950  .00000036  00000-0  00000-0 0  9998
2 38091   1.7535  70.0393 0003640 336.5357 226.0801  1.00267201 35119
BEIDOU 12 (C11)         
1 38250U 12018A   21262.35758212 -.00000117  00000-0  00000-0 0  9996
2 38250  56.7480   2.5149 0022520 244.2016   8.5068  1.86234366 64030
BEIDOU 13 (C12)         
1 38251U 12018B   21262.40173281 -.00000117  00000-0  00000-0 0  9990
2 38251  56.6696   1.8561 0013516 243.3102  83.3468  1.86234114 64036
BEIDOU 15 (C14)         
1 38775U 12050B   21262.43284792  .00000026  00000-0  00000-0 0  9998
2 38775  55.2509 120.8150 0013161 328.1358 216.6767  1.86231403 61412
BEIDOU 16 (C02)         
1 38953U 12059A   21262.60962543 -.00000197  00000-0  00000-0 0  9991
2 38953   1.3214  84.2980 0009428 292.5079 285.3199  1.00275456 32685
BEIDOU 17 (C31)         
1 40549U 15019A   21262.49264635 -.00000141  00000-0  00000-0 0  9997
2 40549  52.3425 315.9022 0038119 188.9109 122.1738  1.00299740 23714
BEIDOU 18 (C57)         
1 40748U 15037A   21262.06691920 -.00000118  00000-0  00000-0 0  9996
2 40748  55.9279   0.8977 0001538  46.1116 325.8528  1.86233228 41866
BEIDOU 19 (C58)         
1 40749U 15037B   21262.22386904 -.00000118  00000-0  00000-0 0  9998
2 40749  55.9314   0.8810 0002585 299.0279 313.8553  1.86232177 41851
BEIDOU 20 (C18)         
1 40938U 15053A   21262.50674380 -.00000104  00000-0  00000-0 0  9990
2 40938  51.9213 278.9822 0048270 196.1032 161.2673  1.00262088 21981
BEIDOU IGSO-6 (C13)     
1 41434U 16021A   21262.56022234 -.00000129  00000-0  00000-0 0  9996
2 41434  57.7092  55.6624 0042997 210.5021  27.1168  1.00293917 20119
BEIDOU-2 G7 (C03)       
1 41586U 16037A   21262.56012125 -.00000376  00000-0  00000-0 0  9993
2 41586   1.8990  68.9527 0008238  15.1320 226.7637  1.00275415 19427
BEIDOU-3 M1 (C19)       
1 43001U 17069A   21262.37039927  .00000027  00000-0  00000-0 0  9993
2 43001  55.4043 120.7812 0008403 295.8554   3.0988  1.86231939 26340
BEIDOU-3 M2 (C20)       
1 43002U 17069B   21262.39493841  .00000027  00000-0  00000-0 0  9995
2 43002  55.4036 120.8149 0007420 322.2170  36.5214  1.86231489 26336
BEIDOU-3 M3 (C27)       
1 43107U 18003A   21262.23804762 -.00000119  00000-0  00000-0 0  9994
2 43107  55.3726   1.9302 0004294  65.8571 353.6101  1.86232603 25109
BEIDOU-3 M4 (C28)       
1 43108U 18003B   21261.95211444 -.00000119  00000-0  00000-0 0  9992
2 43108  55.3668   1.9287 0003505 227.0536  45.8805  1.86232327 25096
BEIDOU-3 M5 (C21)       
1 43207U 18018A   21261.99230364  .00000025  00000-0  00000-0 0  9999
2 43207  55.3634 120.9167 0005625 351.8691   8.2194  1.86231795 24485
BEIDOU-3 M6 (C22)       
1 43208U 18018B   21261.52207877  .00000022  00000-0  00000-0 0  9999
2 43208  55.3623 120.9370 0006661 310.2987  49.7399  1.86231715 24476
BEIDOU-3 M7 (C29)       
1 43245U 18029A   21260.66375837 -.00000117  00000-0  00000+0 0  9993
2 43245  55.2981 359.7712 0001190 172.2971 181.9272  1.86232471 23609
BEIDOU-3 M8 (C30)       
1 43246U 18029B   21262.29171679 -.00000118  00000-0  10000-3 0  9999
2 43246  55.2966 359.7450 0002835 353.5934  58.3831  1.86232840 23633
BEIDOU IGSO-7 (C16)     
1 43539U 18057A   21262.61553054 -.00000176  00000-0  00000-0 0  9992
2 43539  55.0642 178.1156 0041299 224.3398 289.2729  1.00293155 11796
BEIDOU-3 M9 (C23)       
1 43581U 18062A   21262.23337666 -.00000012  00000-0  00000-0 0  9991
2 43581  54.3686 241.3784 0006354 272.1761 310.9808  1.86231920 21372
BEIDOU-3 M10 (C24)      
1 43582U 18062B   21262.56341949 -.00000015  00000-0  00000-0 0  9990
2 43582  54.3675 241.3570 0005377 328.4098 207.4625  1.86232294 21389
BEIDOU-3 M11 (C25)      
1 43602U 18067A   21262.63611848 -.00000016  00000-0  00000-0 0  9995
2 43602  54.4460 239.9452 0006874 351.0199 275.6281  1.86231601 20873
BEIDOU-3 M12 (C26)      
1 43603U 18067B   21262.63928387 -.00000016  00000-0  00000-0 0  9995
2 43603  54.4430 239.9130 0004410 332.4359 206.7748  1.86231535 20890
BEIDOU-3 M13 (C32)      
1 43622U 18072A   21262.23585152  .00000026  00000-0  00000-0 0  9997
2 43622  55.3284 120.4733 0005158 293.8501   4.8893  1.86232001 20392
BEIDOU-3 M14 (C33)      
1 43623U 18072B   21262.45739799  .00000027  00000-0  00000-0 0  9991
2 43623  55.3305 120.4568 0003780 331.2120 206.2946  1.86231990 20401
BEIDOU-3 M15 (C34)      
1 43647U 18078A   21260.30917644 -.00000117  00000-0  10000-3 0  9997
2 43647  55.1949 359.9640 0005176   1.3975  71.0455  1.86232913 19871
BEIDOU-3 M16 (C35)      
1 43648U 18078B   21262.35902105 -.00000118  00000-0  00000-0 0  9998
2 43648  55.1894 359.9003 0003204  19.4629 255.5991  1.86232397 19926
BEIDOU-3 G1 (C59)       
1 43683U 18085A   21262.55971231 -.00000302  00000-0  00000-0 0  9998
2 43683   0.9310 214.5820 0004254  20.4278 105.1866  1.00274234 10695
BEIDOU-3 M17 (C36)      
1 43706U 18093A   21262.10179231 -.00000011  00000-0  00000-0 0  9991
2 43706  54.4502 241.2483 0011506 272.6844  87.1547  1.86231863 19282
BEIDOU-3 M18 (C37)      
1 43707U 18093B   21262.30179527 -.00000013  00000-0  00000-0 0  9994
2 43707  54.4507 241.2327 0010072 291.0321 293.8477  1.86232174 19270
BEIDOU-3 IGSO-1 (C38)   
1 44204U 19023A   21262.34077149 -.00000198  00000-0  00000-0 0  9996
2 44204  56.1593  55.8992 0022515 184.8344 357.8794  1.00292820  8993
BEIDOU-2 G8             
1 44231U 19027A   21262.54296274 -.00000269  00000-0  00000-0 0  9993
2 44231   0.2962  33.6917 0007019 162.4716 142.5121  1.00272954  8709
BEIDOU-3 IGSO-2 (C39)   
1 44337U 19035A   21261.75171449 -.00000185  00000-0  00000-0 0  9994
2 44337  55.0992 174.1558 0020148 183.4802  29.9123  1.00284427  8322
BEIDOU-3 M23 (C45)      
1 44542U 19061A   21261.89469131 -.00000008  00000-0  10000-3 0  9992
2 44542  54.6751 241.3432 0009272 318.3422 306.3188  1.86231477 13520
BEIDOU-3 M24 (C46)      
1 44543U 19061B   21261.96309975 -.00000009  00000-0  10000-3 0  9991
2 44543  54.6734 241.3115 0006990 304.3136 277.1861  1.86231750 13528
BEIDOU-3 IGSO-3         
1 44709U 19073A   21262.36694318 -.00000151  00000-0  00000-0 0  9995
2 44709  57.6964 299.1948 0020546 184.2364 126.2526  1.00288944  7085
BEIDOU-3 M21            
1 44793U 19078A   21262.29014619 -.00000118  00000-0  10000-3 0  9992
2 44793  55.0425 359.9510 0005093   8.5133 266.3821  1.86232076 12397
BEIDOU-3 M22            
1 44794U 19078B   21262.42570024 -.00000118  00000-0  00000-0 0  9991
2 44794  55.0169 359.9424 0003391   2.9018 274.0435  1.86232839 12390
BEIDOU-3 M19            
1 44864U 19090A   21262.17161703  .00000025  00000-0  00000-0 0  9991
2 44864  55.2641 120.7016 0014761 267.4929  33.6991  1.86232047 11978
BEIDOU-3 M20            
1 44865U 19090B   21262.56521822  .00000027  00000-0  00000-0 0  9999
2 44865  55.2662 120.7194 0013475 284.0565  10.9336  1.86231995 11951
BEIDOU-3 G2             
1 45344U 20017A   21262.60191319 -.00000164  00000-0  00000-0 0  9995
2 45344   2.3190 339.7009 0003724 161.6409 154.0953  1.00271163  5903
BEIDOU-3 G3             
1 45807U 20040A   21262.61210131 -.00000379  00000-0  00000-0 0  9998
2 45807   2.0691 299.0836 0009656 336.3837  54.0540  1.00277945  4726
